[
{
"name": "Aten 247517 (2002 QY6)",
"semiMajorAxis": 0.817,
"eccentricity": 0.699,
"inclination": 12.8,
"longitudeOfAscendingNode": 164.0,
"argumentOfPeriapsis": 355.0,
"meanAnomaly": 342.0,
"radius": 0.1345,
"color": 255,
"approach_date": 1759623720000,
"info": "247517 (2002 QY6) is a Aten near-Earth asteroid that will make a close approach on October 05, 2025. It has a diameter of 0.269 km."
},
{
"name": "Aten 162080 (1998 DG16)",
"semiMajorAxis": 0.897,
"eccentricity": 0.358,
"inclination": 16.2,
"longitudeOfAscendingNode": 344.0,
"argumentOfPeriapsis": 357.0,
"meanAnomaly": 68.1,
"radius": 0.3885,
"color": 255,
"approach_date": 1759925160000,
"info": "162080 (1998 DG16) is a Aten near-Earth asteroid that will make a close approach on October 08, 2025. It has a diameter of 0.777 km."
},
{
"name": "Apollo (2014 GJ35)",
"semiMajorAxis": 1.52,
"eccentricity": 0.633,
"inclination": 33.9,
"longitudeOfAscendingNode": 193.0,
"argumentOfPeriapsis": 114.0,
"meanAnomaly": 39.5,
"radius": 0.1885,
"color": 16711680,
"approach_date": 1760295960000,
"info": "(2014 GJ35) is a Apollo near-Earth asteroid that will make a close approach on October 12, 2025. It has a diameter of 0.377 km."
},
{
"name": "Aten 99907 (1989 VA)",
"semiMajorAxis": 0.728,
"eccentricity": 0.595,
"inclination": 28.8,
"longitudeOfAscendingNode": 226.0,
"argumentOfPeriapsis": 2.87,
"meanAnomaly": 156.0,
"radius": 0.7,
"color": 255,
"approach_date": 1761349920000,
"info": "99907 (1989 VA) is a Aten near-Earth asteroid that will make a close approach on October 24, 2025. It has a diameter of 1.4 km."
},
{
"name": "Aten (2010 OF101)",
"semiMajorAxis": 0.951,
"eccentricity": 0.325,
"inclination": 23.4,
"longitudeOfAscendingNode": 212.0,
"argumentOfPeriapsis": 283.0,
"meanAnomaly": 317.0,
"radius": 0.1515,
"color": 255,
"approach_date": 1761322800000,
"info": "(2010 OF101) is a Aten near-Earth asteroid that will make a close approach on October 24, 2025. It has a diameter of 0.303 km."
},
{
"name": "Aten 162142 (1998 VR)",
"semiMajorAxis": 0.875,
"eccentricity": 0.318,
"inclination": 21.8,
"longitudeOfAscendingNode": 46.3,
"argumentOfPeriapsis": 171.0,
"meanAnomaly": 196.0,
"radius": 0.231,
"color": 255,
"approach_date": 1761499320000,
"info": "162142 (1998 VR) is a Aten near-Earth asteroid that will make a close approach on October 26, 2025. It has a diameter of 0.462 km."
},
{
"name": "Aten (2010 VD72)",
"semiMajorAxis": 0.918,
"eccentricity": 0.181,
"inclination": 19.2,
"longitudeOfAscendingNode": 224.0,
"argumentOfPeriapsis": 310.0,
"meanAnomaly": 276.0,
"radius": 0.062,
"color": 255,
"approach_date": 1762308900000,
"info": "(2010 VD72) is a Aten near-Earth asteroid that will make a close approach on November 05, 2025. It has a diameter of 0.124 km."
},
{
"name": "Apollo 164206 (2004 FN18)",
"semiMajorAxis": 1.7,
"eccentricity": 0.41,
"inclination": 18.3,
"longitudeOfAscendingNode": 214.0,
"argumentOfPeriapsis": 233.0,
"meanAnomaly": 349.0,
"radius": 0.569,
"color": 16711680,
"approach_date": 1762534620000,
"info": "164206 (2004 FN18) is a Apollo near-Earth asteroid that will make a close approach on November 07, 2025. It has a diameter of 1.138 km."
},
{
"name": "Apollo 410777 (2009 FD)",
"semiMajorAxis": 1.16,
"eccentricity": 0.493,
"inclination": 3.12,
"longitudeOfAscendingNode": 9.17,
"argumentOfPeriapsis": 282.0,
"meanAnomaly": 50.4,
"radius": 0.236,
"color": 16711680,
"approach_date": 1762752120000,
"info": "410777 (2009 FD) is a Apollo near-Earth asteroid that will make a close approach on November 10, 2025. It has a diameter of 0.472 km."
},
{
"name": "Apollo 3361 Orpheus (1982 HR)",
"semiMajorAxis": 1.21,
"eccentricity": 0.323,
"inclination": 2.65,
"longitudeOfAscendingNode": 188.0,
"argumentOfPeriapsis": 303.0,
"meanAnomaly": 321.0,
"radius": 0.15,
"color": 16711680,
"approach_date": 1763515620000,
"info": "3361 Orpheus (1982 HR) is a Apollo near-Earth asteroid that will make a close approach on November 19, 2025. It has a diameter of 0.3 km."
},
{
"name": "Aten 706765 (2010 TK7)",
"semiMajorAxis": 0.999,
"eccentricity": 0.19,
"inclination": 20.9,
"longitudeOfAscendingNode": 96.4,
"argumentOfPeriapsis": 46.1,
"meanAnomaly": 307.0,
"radius": 0.1895,
"color": 255,
"approach_date": 1764332820000,
"info": "706765 (2010 TK7) is a Aten near-Earth asteroid that will make a close approach on November 28, 2025. It has a diameter of 0.379 km."
},
{
"name": "Aten 706765 (2010 TK7)",
"semiMajorAxis": 0.999,
"eccentricity": 0.19,
"inclination": 20.9,
"longitudeOfAscendingNode": 96.4,
"argumentOfPeriapsis": 46.1,
"meanAnomaly": 307.0,
"radius": 0.1895,
"color": 255,
"approach_date": 1764332820000,
"info": "706765 (2010 TK7) is a Aten near-Earth asteroid that will make a close approach on November 28, 2025. It has a diameter of 0.379 km."
},
{
"name": "Apollo 613995 (2008 NP3)",
"semiMajorAxis": 1.0,
"eccentricity": 0.334,
"inclination": 1.43,
"longitudeOfAscendingNode": 78.3,
"argumentOfPeriapsis": 328.0,
"meanAnomaly": 4.28,
"radius": 0.0965,
"color": 16711680,
"approach_date": 1764248640000,
"info": "613995 (2008 NP3) is a Apollo near-Earth asteroid that will make a close approach on November 27, 2025. It has a diameter of 0.193 km."
},
{
"name": "Apollo 533722 (2014 NE52)",
"semiMajorAxis": 2.39,
"eccentricity": 0.658,
"inclination": 3.86,
"longitudeOfAscendingNode": 54.5,
"argumentOfPeriapsis": 338.0,
"meanAnomaly": 3.99,
"radius": 0.3505,
"color": 16711680,
"approach_date": 1764747780000,
"info": "533722 (2014 NE52) is a Apollo near-Earth asteroid that will make a close approach on December 03, 2025. It has a diameter of 0.701 km."
},
{
"name": "Amor 433 Eros (A898 PA)",
"semiMajorAxis": 1.46,
"eccentricity": 0.223,
"inclination": 10.8,
"longitudeOfAscendingNode": 304.0,
"argumentOfPeriapsis": 179.0,
"meanAnomaly": 311.0,
"radius": 0.842,
"color": 65280,
"approach_date": 1764469080000,
"info": "433 Eros (A898 PA) is a Amor near-Earth asteroid that will make a close approach on November 30, 2025. It has a diameter of 16.84 km."
},
{
"name": "Aten 297418 (2000 SP43)",
"semiMajorAxis": 0.812,
"eccentricity": 0.467,
"inclination": 10.3,
"longitudeOfAscendingNode": 351.0,
"argumentOfPeriapsis": 224.0,
"meanAnomaly": 250.0,
"radius": 0.2035,
"color": 255,
"approach_date": 1765197180000,
"info": "297418 (2000 SP43) is a Aten near-Earth asteroid that will make a close approach on December 08, 2025. It has a diameter of 0.407 km."
},
{
"name": "Apollo (2010 XP69)",
"semiMajorAxis": 1.52,
"eccentricity": 0.343,
"inclination": 14.6,
"longitudeOfAscendingNode": 200.0,
"argumentOfPeriapsis": 197.0,
"meanAnomaly": 358.0,
"radius": 0.1365,
"color": 16711680,
"approach_date": 1765197300000,
"info": "(2010 XP69) is a Apollo near-Earth asteroid that will make a close approach on December 08, 2025. It has a diameter of 0.273 km."
},
{
"name": "Aten (2010 AJ30)",
"semiMajorAxis": 0.811,
"eccentricity": 0.302,
"inclination": 7.57,
"longitudeOfAscendingNode": 303.0,
"argumentOfPeriapsis": 351.0,
"meanAnomaly": 63.3,
"radius": 0.0555,
"color": 255,
"approach_date": 1766086500000,
"info": "(2010 AJ30) is a Aten near-Earth asteroid that will make a close approach on December 18, 2025. It has a diameter of 0.111 km."
},
{
"name": "Aten 741537 (2006 HV5)",
"semiMajorAxis": 0.842,
"eccentricity": 0.316,
"inclination": 32.0,
"longitudeOfAscendingNode": 35.9,
"argumentOfPeriapsis": 318.0,
"meanAnomaly": 8.22,
"radius": 0.1535,
"color": 255,
"approach_date": 1766483700000,
"info": "741537 (2006 HV5) is a Aten near-Earth asteroid that will make a close approach on December 23, 2025. It has a diameter of 0.307 km."
},
{
"name": "Apollo (2016 JU33)",
"semiMajorAxis": 1.83,
"eccentricity": 0.534,
"inclination": 3.88,
"longitudeOfAscendingNode": 293.0,
"argumentOfPeriapsis": 224.0,
"meanAnomaly": 330.0,
"radius": 0.087,
"color": 16711680,
"approach_date": 1766622300000,
"info": "(2016 JU33) is a Apollo near-Earth asteroid that will make a close approach on December 25, 2025. It has a diameter of 0.174 km."
},
{
"name": "Aten 88213 (2001 AF2)",
"semiMajorAxis": 0.954,
"eccentricity": 0.595,
"inclination": 17.8,
"longitudeOfAscendingNode": 114.0,
"argumentOfPeriapsis": 195.0,
"meanAnomaly": 17.4,
"radius": 0.456,
"color": 255,
"approach_date": 1766582880000,
"info": "88213 (2001 AF2) is a Aten near-Earth asteroid that will make a close approach on December 24, 2025. It has a diameter of 0.912 km."
},
{
"name": "Apollo 488789 (2004 XK50)",
"semiMajorAxis": 1.45,
"eccentricity": 0.689,
"inclination": 38.2,
"longitudeOfAscendingNode": 94.0,
"argumentOfPeriapsis": 104.0,
"meanAnomaly": 314.0,
"radius": 0.5195,
"color": 16711680,
"approach_date": 1766614860000,
"info": "488789 (2004 XK50) is a Apollo near-Earth asteroid that will make a close approach on December 24, 2025. It has a diameter of 1.039 km."
},
{
"name": "Aten 422686 (2000 AC6)",
"semiMajorAxis": 0.854,
"eccentricity": 0.287,
"inclination": 4.7,
"longitudeOfAscendingNode": 101.0,
"argumentOfPeriapsis": 188.0,
"meanAnomaly": 115.0,
"radius": 0.088,
"color": 255,
"approach_date": 1767300300000,
"info": "422686 (2000 AC6) is a Aten near-Earth asteroid that will make a close approach on January 01, 2026. It has a diameter of 0.176 km."
},
{
"name": "Aten (2010 KD149)",
"semiMajorAxis": 0.889,
"eccentricity": 0.212,
"inclination": 14.2,
"longitudeOfAscendingNode": 324.0,
"argumentOfPeriapsis": 131.0,
"meanAnomaly": 315.0,
"radius": 0.1065,
"color": 255,
"approach_date": 1767601200000,
"info": "(2010 KD149) is a Aten near-Earth asteroid that will make a close approach on January 05, 2026. It has a diameter of 0.213 km."
},
{
"name": "Aten (2010 KD149)",
"semiMajorAxis": 0.889,
"eccentricity": 0.212,
"inclination": 14.2,
"longitudeOfAscendingNode": 324.0,
"argumentOfPeriapsis": 131.0,
"meanAnomaly": 315.0,
"radius": 0.1065,
"color": 255,
"approach_date": 1767601200000,
"info": "(2010 KD149) is a Aten near-Earth asteroid that will make a close approach on January 05, 2026. It has a diameter of 0.213 km."
}
]